{
  "type": "FeatureCollection",
  "generator": "geo-utils-cpp tools/assets/emit.cpp",
  "features": [
    {
      "type": "Feature",
      "properties": {"role": "track", "count": 95, "length_m": 2505.19},
      "geometry": {"type": "LineString", "coordinates": [[-82.4017600, 28.0545900], [-82.4029600, 28.0546700], [-82.4040800, 28.0545900], [-82.4058800, 28.0548200], [-82.4069500, 28.0545400], [-82.4082800, 28.0546100], [-82.4091400, 28.0545800], [-82.4104700, 28.0547700], [-82.4116700, 28.0546100], [-82.4116700, 28.0546100], [-82.4120600, 28.0546000], [-82.4123000, 28.0546000], [-82.4127400, 28.0546500], [-82.4130700, 28.0546700], [-82.4130600, 28.0549600], [-82.4130900, 28.0552600], [-82.4130800, 28.0560200], [-82.4131200, 28.0568000], [-82.4131000, 28.0577600], [-82.4130700, 28.0585400], [-82.4131600, 28.0587500], [-82.4132700, 28.0587300], [-82.4133000, 28.0586900], [-82.4133200, 28.0586300], [-82.4133200, 28.0585700], [-82.4133200, 28.0584500], [-82.4133200, 28.0582100], [-82.4133300, 28.0581800], [-82.4133200, 28.0581800], [-82.4133200, 28.0581700], [-82.4133200, 28.0581600], [-82.4133200, 28.0581200], [-82.4133200, 28.0580800], [-82.4133100, 28.0580100], [-82.4133100, 28.0578100], [-82.4133200, 28.0575700], [-82.4133300, 28.0574000], [-82.4133400, 28.0572900], [-82.4133800, 28.0569700], [-82.4133800, 28.0565600], [-82.4133800, 28.0562000], [-82.4133800, 28.0559500], [-82.4133800, 28.0556900], [-82.4134300, 28.0552500], [-82.4133500, 28.0550800], [-82.4133600, 28.0549800], [-82.4133300, 28.0548200], [-82.4133700, 28.0547100], [-82.4133500, 28.0546500], [-82.4133800, 28.0545800], [-82.4134400, 28.0545800], [-82.4136000, 28.0545900], [-82.4136600, 28.0545900], [-82.4137500, 28.0545900], [-82.4141100, 28.0545900], [-82.4146000, 28.0546100], [-82.4147900, 28.0546000], [-82.4149700, 28.0546000], [-82.4151200, 28.0546100], [-82.4152900, 28.0546000], [-82.4154800, 28.0546100], [-82.4156300, 28.0546000], [-82.4158000, 28.0546000], [-82.4160000, 28.0546000], [-82.4161200, 28.0546000], [-82.4161700, 28.0546000], [-82.4162000, 28.0546000], [-82.4162100, 28.0545700], [-82.4162400, 28.0545400], [-82.4162600, 28.0545200], [-82.4162800, 28.0544900], [-82.4162800, 28.0544600], [-82.4162800, 28.0544300], [-82.4162800, 28.0544100], [-82.4162900, 28.0543900], [-82.4163000, 28.0543700], [-82.4163100, 28.0543600], [-82.4163200, 28.0543400], [-82.4163300, 28.0543200], [-82.4163400, 28.0543000], [-82.4163400, 28.0542700], [-82.4163400, 28.0542400], [-82.4163300, 28.0541800], [-82.4163400, 28.0541400], [-82.4163500, 28.0540900], [-82.4163300, 28.0540500], [-82.4163200, 28.0539800], [-82.4163400, 28.0539500], [-82.4163600, 28.0539200], [-82.4163400, 28.0538900], [-82.4163300, 28.0538500], [-82.4163300, 28.0537700], [-82.4163200, 28.0535900], [-82.4163300, 28.0533900], [-82.4163400, 28.0531000]]}
    },
    {
      "type": "Feature",
      "properties": {"role": "bounds", "center": [-82.4090600, 28.0559250]},
      "geometry": {"type": "Polygon", "coordinates": [[[-82.4163600, 28.0531000], [-82.4017600, 28.0531000], [-82.4017600, 28.0587500], [-82.4163600, 28.0587500], [-82.4163600, 28.0531000]]]}
    },
    {
      "type": "Feature",
      "properties": {"role": "simplified", "tolerance_m": 5.0, "count": 20, "length_m": 2497.05},
      "geometry": {"type": "LineString", "coordinates": [[-82.4017600, 28.0545900], [-82.4029600, 28.0546700], [-82.4040800, 28.0545900], [-82.4058800, 28.0548200], [-82.4069500, 28.0545400], [-82.4082800, 28.0546100], [-82.4091400, 28.0545800], [-82.4104700, 28.0547700], [-82.4116700, 28.0546100], [-82.4130700, 28.0546700], [-82.4130700, 28.0585400], [-82.4131600, 28.0587500], [-82.4132700, 28.0587300], [-82.4133200, 28.0586300], [-82.4134300, 28.0552500], [-82.4133300, 28.0548200], [-82.4133800, 28.0545800], [-82.4162000, 28.0546000], [-82.4163400, 28.0543000], [-82.4163400, 28.0531000]]}
    },
    {
      "type": "Feature",
      "properties": {"role": "fix"},
      "geometry": {"type": "Point", "coordinates": [-82.4134600, 28.0563200]}
    },
    {
      "type": "Feature",
      "properties": {"role": "snapped", "segment": 13, "distance_m": 6.358},
      "geometry": {"type": "Point", "coordinates": [-82.4133952, 28.0563184]}
    },
    {
      "type": "Feature",
      "properties": {"role": "snap_link"},
      "geometry": {"type": "LineString", "coordinates": [[-82.4134600, 28.0563200], [-82.4133952, 28.0563184]]}
    },
    {
      "type": "Feature",
      "properties": {"role": "eta", "distance_m": 500.0},
      "geometry": {"type": "Point", "coordinates": [-82.4067903, 28.0545818]}
    }
  ]
}
